IRIDIUM 112             
1 41925U 17003J   24321.10136157  .00000345  00000+0  11617-3 0  9998
2 41925  86.3949 329.8897 0002441 100.0329 260.1143 14.34215678410445
IRIDIUM 111             
1 41926U 17003K   24321.43753019  .00000273  00000+0  90362-4 0  9992
2 41926  86.3950 329.8069 0002402  90.7323 269.4148 14.34216650410511
IRIDIUM 113             
1 42803U 17039A   24321.13842729  .00000121  00000+0  36274-4 0  9994
2 42803  86.4021 203.7012 0002358  95.1564 264.9901 14.34210914388338
IRIDIUM 123             
1 42804U 17039B   24321.31943921  .00000413  00000+0  14028-3 0  9997
2 42804  86.3993 235.0740 0002354  78.4610 281.6850 14.34216288387129
IRIDIUM 120             
1 42805U 17039C   24321.41113591  .00000649  00000+0  22454-3 0  9994
2 42805  86.4012 203.4451 0002058  77.0963 283.0462 14.34215276388366
IRIDIUM 115             
1 42806U 17039D   24321.38471194  .00000801  00000+0  23222-3 0  9991
2 42806  86.4550 203.5035 0002401  76.4632 283.6836 14.43280098390921
IRIDIUM 118             
1 42807U 17039E   24321.28138322  .00000720  00000+0  25003-3 0  9993
2 42807  86.3993 235.0903 0002149  86.1491 273.9950 14.34215243387123
IRIDIUM 117             
1 42808U 17039F   24320.74224941  .00000486  00000+0  16636-3 0  9998
2 42808  86.3991 235.2785 0002372  80.3801 279.7663 14.34212750387069
